NORAD_CAT_ID,OBJECT_NAME,OBJECT_TYPE,EPOCH,MEAN_MOTION,ECCENTRICITY,INCLINATION,RA_OF_ASC_NODE,ARG_OF_PERICENTER,MEAN_ANOMALY,BSTAR,MEAN_MOTION_DOT,MEAN_MOTION_DDOT,TLE_LINE0,TLE_LINE1,TLE_LINE2,SEMIMAJOR_AXIS,PERIOD,APOGEE,PERIGEE,DECAYED
53427.0,STARLINK-4541,PAYLOAD,2022-09-16 22:00:00,15.68279428,0.0001171,53.2174,61.4078,61.7369,220.1733,-0.010201,-0.01047164,0.0,0 STARLINK-4541,1 53427U 22097AR  22259.91667824 -.01047164  00000-0 -10201-1 0  9994,2 53427  53.2174  61.4078 0001171  61.7369 220.1733 15.68279428  1307,6741.9609999999975,91.82,364.615,363.036,0.0
53427.0,STARLINK-4541,PAYLOAD,2022-09-17 14:00:01,15.66793234,0.0001296999999999,53.2179,58.14,56.7769,29.3085,-0.011334,-0.01089615,0.0,0 STARLINK-4541,1 53427U 22097AR  22260.58334491 -.01089615  00000-0 -11334-1 0  9995,2 53427  53.2179  58.1400 0001297  56.7769  29.3085 15.66793234  6477,6746.223000000001,91.907,368.963,367.213,0.0
53427.0,STARLINK-4541,PAYLOAD,2022-09-17 22:00:00,15.65999318,0.000133,53.2174,56.5137,57.5593,109.2673,-0.011159,-0.01043844,0.0,0 STARLINK-4541,1 53427U 22097AR  22260.91667824 -.01043844  00000-0 -11159-1 0  9990,2 53427  53.2174  56.5137 0001330  57.5593 109.2673 15.65999318  1301,6748.503000000002,91.954,371.266,369.471,0.0
53427.0,STARLINK-4541,PAYLOAD,2022-09-18 14:00:01,15.64536809,0.0001145,53.2178,53.257,50.1952,275.3803,-0.012704,-0.01130331,0.0,0 STARLINK-4541,1 53427U 22097AR  22261.58335648 -.01130331  00000-0 -12704-1 0  9995,2 53427  53.2178  53.2570 0001145  50.1952 275.3803 15.64536809  6623,6752.708000000001,92.04,375.346,373.8,0.0
53427.0,STARLINK-4541,PAYLOAD,2022-09-18 22:00:00,15.63723836,0.0001272,53.2171,51.6362,46.2345,357.2926,-0.012276,-0.01047619,0.0,0 STARLINK-4541,1 53427U 22097AR  22261.91667824 -.01047619  00000-0 -12276-1 0  9996,2 53427  53.2171  51.6362 0001272  46.2345 357.2926 15.63723836  1303,6755.0480000000025,92.088,377.773,376.054,0.0
53427.0,STARLINK-4541,PAYLOAD,2022-09-19 06:00:02,15.63003273,0.0001702,53.2176,50.0105,34.5053,86.1438,-0.0132909999999999,-0.01114446,0.0,0 STARLINK-4541,1 53427U 22097AR  22262.25002315 -.01114446  00000-0 -13291-1 0  9993,2 53427  53.2176  50.0105 0001702  34.5053  86.1438 15.63003273  6734,6757.124,92.13,380.139,377.839,0.0
53427.0,STARLINK-4541,PAYLOAD,2022-09-19 14:00:01,15.62203053,0.0001717,53.2176,48.3929,39.2404,157.5258,-0.012996,-0.0106106,0.0,0 STARLINK-4541,1 53427U 22097AR  22262.58334491 -.01061060  00000-0 -12996-1 0  9996,2 53427  53.2176  48.3929 0001717  39.2404 157.5258 15.62203053  1304,6759.432,92.178,382.457,380.136,0.0
53427.0,STARLINK-4541,PAYLOAD,2022-09-19 22:00:00,15.61445484,0.0001295,53.2173,46.7751,53.1296,218.8852,-0.0134169999999999,-0.01063124,0.0,0 STARLINK-4541,1 53427U 22097AR  22262.91667824 -.01063124  00000-0 -13417-1 0  9994,2 53427  53.2173  46.7751 0001295  53.1296 218.8852 15.61445484  6830,6761.618,92.222,384.359,382.607,0.0
53427.0,STARLINK-4541,PAYLOAD,2022-09-20 14:00:01,15.59926611,0.0001847,53.2177,43.5432,28.0147,31.7626,-0.014241,-0.01064046,0.0,0 STARLINK-4541,1 53427U 22097AR  22263.58334491 -.01064046  00000-0 -14241-1 0  9999,2 53427  53.2177  43.5432 0001847  28.0147  31.7626 15.59926611  1305,6766.005999999999,92.312,389.121,386.622,0.0
53427.0,STARLINK-4541,PAYLOAD,2022-09-20 22:00:01,15.59166723,0.0001704,53.2173,41.9307,36.5984,95.7555,-0.0146439999999999,-0.01062784,0.0,0 STARLINK-4541,1 53427U 22097AR  22263.91668981 -.01062784  00000-0 -14644-1 0  9994,2 53427  53.2173  41.9307 0001704  36.5984  95.7555 15.59166723  1300,6768.204000000002,92.357,391.223,388.916,0.0
53427.0,STARLINK-4541,PAYLOAD,2022-09-21 14:00:01,15.57659078,0.0001511,53.2174,38.7082,42.9093,231.6613,-0.01575,-0.010778,0.0,0 STARLINK-4541,1 53427U 22097AR  22264.58334491 -.01077800  00000-0 -15750-1 0  9998,2 53427  53.2174  38.7082 0001511  42.9093 231.6613 15.57659078  7099,6772.571,92.446,395.459,393.413,0.0
53427.0,STARLINK-4541,PAYLOAD,2022-09-21 22:00:00,15.56889502,0.000167,53.2172,37.1031,29.751,314.5969,-0.015979,-0.01063649,0.0,0 STARLINK-4541,1 53427U 22097AR  22264.91667824 -.01063649  00000-0 -15979-1 0  9993,2 53427  53.2172  37.1031 0001670  29.7510 314.5969 15.56889502  1306,6774.803000000001,92.492,397.799,395.536,0.0
53427.0,STARLINK-4541,PAYLOAD,2022-09-22 14:00:01,15.55409068,0.0001286,53.2177,33.8911,24.3961,96.7452,-0.017823,-0.01116887,0.0,0 STARLINK-4541,1 53427U 22097AR  22265.58334491 -.01116887  00000-0 -17823-1 0  9991,2 53427  53.2177  33.8911 0001286  24.3961  96.7452 15.55409068  1305,6779.101,92.58,401.838,400.094,0.0
53427.0,STARLINK-4541,PAYLOAD,2022-09-22 22:00:00,15.54610199,0.0001613,53.2173,32.2917,43.4267,144.7678,-0.01738,-0.01062813,0.0,0 STARLINK-4541,1 53427U 22097AR  22265.91667824 -.01062813  00000-0 -17380-1 0  9994,2 53427  53.2173  32.2917 0001613  43.4267 144.7678 15.54610199  1307,6781.4230000000025,92.628,404.382,402.194,0.0
53427.0,STARLINK-4541,PAYLOAD,2022-09-23 06:00:00,15.53848752,0.000185,53.2174,30.6897,31.6362,222.6833,-0.017812,-0.01059525,0.0,0 STARLINK-4541,1 53427U 22097AR  22266.25001157 -.01059525  00000-0 -17812-1 0  9999,2 53427  53.2174  30.6897 0001850  31.6362 222.6833 15.53848752  7352,6783.638000000001,92.673,406.758,404.24800000000016,0.0
53427.0,STARLINK-4541,PAYLOAD,2022-09-23 14:00:01,15.53090053,0.0001899999999999,53.2175,29.0931,27.4321,292.0965,-0.018327,-0.01060251,0.0,0 STARLINK-4541,1 53427U 22097AR  22266.58334491 -.01060251  00000-0 -18327-1 0  9995,2 53427  53.2175  29.0931 0001900  27.4321 292.0965 15.53090053  1307,6785.847,92.718,409.002,406.423,0.0
53427.0,STARLINK-4541,PAYLOAD,2022-09-23 22:00:00,15.52331454,0.000152,53.2172,27.4967,36.3962,347.43,-0.018858,-0.01061065,0.0,0 STARLINK-4541,1 53427U 22097AR  22266.91667824 -.01061065  00000-0 -18858-1 0  9994,2 53427  53.2172  27.4967 0001520  36.3962 347.4300 15.52331454  1303,6788.058000000001,92.764,410.955,408.891,0.0
53427.0,STARLINK-4541,PAYLOAD,2022-09-24 14:00:01,15.50711052,0.0001609,53.2173,24.3082,33.7567,116.0126,-0.0148759999999999,-0.00798536,0.0,0 STARLINK-4541,1 53427U 22097AR  22267.58335648 -.00798536  00000-0 -14876-1 0  9999,2 53427  53.2173  24.3082 0001609  33.7567 116.0126 15.50711052  1308,6792.786,92.861,415.744,413.5580000000001,0.0
53427.0,STARLINK-4541,PAYLOAD,2022-09-24 22:00:00,15.50030995,0.0001405,53.2171,22.715,43.101000000000006,168.1695,-0.004019,-0.00223325,0.0,0 STARLINK-4541,1 53427U 22097AR  22267.91667824 -.00223325  00000-0 -40190-2 0  9998,2 53427  53.2171  22.7150 0001405  43.1010 168.1695 15.50030995  7615,6794.772,92.901,417.592,415.6830000000001,0.0
53427.0,STARLINK-4541,PAYLOAD,2022-09-25 06:00:00,15.5005641,0.0001738,53.2174,21.1189,45.8167,226.3577,-0.0047311,-0.00261791,0.0,0 STARLINK-4541,1 53427U 22097AR  22268.25001157 -.00261791  00000-0 -47311-2 0  9998,2 53427  53.2174  21.1189 0001738  45.8167 226.3577 15.50056410  7665,6794.698,92.9,417.744,415.382,0.0
53427.0,STARLINK-4541,PAYLOAD,2022-09-25 14:00:01,15.4988578,0.0001738,53.2172,19.5291,39.9255,293.2469,-1.317e-05,-1.199e-05,0.0,0 STARLINK-4541,1 53427U 22097AR  22268.58334491 -.00001199  00000-0 -13170-4 0  9996,2 53427  53.2172  19.5291 0001738  39.9255 293.2469 15.49885780  1306,6795.196999999999,92.91,418.24300000000005,415.881,0.0
53427.0,STARLINK-4541,PAYLOAD,2022-09-25 22:00:01,15.49886115,0.0001702,53.2173,17.9355,39.1412,355.0104,-1.7219000000000002e-05,-1.429e-05,0.0,0 STARLINK-4541,1 53427U 22097AR  22268.91668981 -.00001429  00000-0 -17219-4 0  9991,2 53427  53.2173  17.9355 0001702  39.1412 355.0104 15.49886115  1304,6795.196,92.91,418.217,415.904,0.0
53427.0,STARLINK-4541,PAYLOAD,2022-09-26 10:00:00,15.49898242,0.0002268,53.219,15.5364,52.2018,252.9888,-0.00025675,-0.00015004,0.0,0 STARLINK-4541,1 53427U 22097AR  22269.41667824 -.00015004  00000-0 -25675-3 0  9990,2 53427  53.2190  15.5364 0002268  52.2018 252.9888 15.49898242  7846,6795.16,92.909,418.567,415.484,0.0
53427.0,STARLINK-4541,PAYLOAD,2022-09-26 14:00:01,15.49888176,0.0002407,53.2188,14.741,49.1227,106.5314,5.9042e-07,-4.19e-06,0.0,0 STARLINK-4541,1 53427U 22097AR  22269.58334491 -.00000419  00000-0  59042-6 0  9990,2 53427  53.2188  14.7410 0002407  49.1227 106.5314 15.49888176  1306,6795.19,92.91,418.69,415.419,0.0
53427.0,STARLINK-4541,PAYLOAD,2022-09-26 22:00:00,15.49766591,0.0002360999999999,53.218,13.1512,46.4334,170.1654,0.007305,0.00436275,0.0,0 STARLINK-4541,1 53427U 22097AR  22269.91667824  .00436275  00000-0  73050-2 0  9999,2 53427  53.2180  13.1512 0002361  46.4334 170.1654 15.49766591  1302,6795.545,92.917,419.015,415.806,0.0
53427.0,STARLINK-4541,PAYLOAD,2022-09-27 06:00:00,15.49896331,0.0002288,53.2186,11.5533,53.4748,224.031,0.00078295,0.00044256,0.0,0 STARLINK-4541,1 53427U 22097AR  22270.25001157  .00044256  00000-0  78295-3 0  9990,2 53427  53.2186  11.5533 0002288  53.4748 224.0310 15.49896331  7971,6795.166,92.909,418.586,415.476,0.0
53427.0,STARLINK-4541,PAYLOAD,2022-09-27 14:00:01,15.49919087,0.0002494,53.2183,9.9624,50.0681,288.3839,4.1711e-05,1.918e-05,0.0,0 STARLINK-4541,1 53427U 22097AR  22270.58334491  .00001918  00000-0  41711-4 0  9998,2 53427  53.2183   9.9624 0002494  50.0681 288.3839 15.49919087  1302,6795.1,92.908,418.659,415.27,0.0
53427.0,STARLINK-4541,PAYLOAD,2022-09-27 22:00:01,15.49953537,0.0002423999999999,53.2179,8.3686,49.9087,349.5716,-0.00025917,-0.00015171,0.0,0 STARLINK-4541,1 53427U 22097AR  22270.91668981 -.00015171  00000-0 -25917-3 0  9996,2 53427  53.2179   8.3686 0002424  49.9087 349.5716 15.49953537  1300,6794.999,92.906,418.511,415.217,0.0
53427.0,STARLINK-4541,PAYLOAD,2022-09-28 06:00:00,15.49945865,0.0002307,53.2181,6.7744,55.1798,45.2274,0.00075062,0.00042475,0.0,0 STARLINK-4541,1 53427U 22097AR  22271.25001157  .00042475  00000-0  75062-3 0  9991,2 53427  53.2181   6.7744 0002307  55.1798  45.2274 15.49945865  8130,6795.021,92.906,418.454,415.319,0.0
